start=new Date('2022-10-16T00:00:00.000Z').valueOf();
sats=[{"ARG_OF_PERICENTER":"41.0497","MEAN_MOTION_DOT":"-0.00604002","SITE":"AFETR","EPOCH":"2022-10-15T22:00:01.999584","APOAPSIS":"350.151","PERIOD":"91.522","CLASSIFICATION_TYPE":"U","ECCENTRICITY":"0.00014180","FILE":"3615197","MEAN_ANOMALY":"221.4932","RA_OF_ASC_NODE":"71.0990","SEMIMAJOR_AXIS":"6727.332","EPHEMERIS_TYPE":"0","RCS_SIZE":"LARGE","CENTER_NAME":"EARTH","LAUNCH_DATE":"2022-09-05","OBJECT_TYPE":"PAYLOAD","COUNTRY_CODE":"US","PERIAPSIS":"348.243","TIME_SYSTEM":"UTC","OBJECT_NAME":"STARLINK-4688","TLE_LINE1":"1 53714U 22107Q   22288.91668981 -.00604002  00000-0 -45771-2 0  9992","TLE_LINE2":"2 53714  53.2153  71.0990 0001418  41.0497 221.4932 15.73397448  6545","REF_FRAME":"TEME","REV_AT_EPOCH":"654","DECAY_DATE":null,"ELEMENT_SET_NO":"999","OBJECT_ID":"2022-107Q","BSTAR":"-0.00457710000000","MEAN_MOTION_DDOT":"0.0000000000000","NORAD_CAT_ID":"53714","GP_ID":"215215203","MEAN_MOTION":"15.73397448","MEAN_ELEMENT_THEORY":"SGP4","INCLINATION":"53.2153"},{"EPOCH":"2022-10-15T22:00:01.999584","SITE":"AFETR","ARG_OF_PERICENTER":"46.6299","MEAN_MOTION_DOT":"-0.00719275","SEMIMAJOR_AXIS":"6727.195","EPHEMERIS_TYPE":"0","MEAN_ANOMALY":"213.5591","RA_OF_ASC_NODE":"71.1037","FILE":"3615197","PERIOD":"91.519","CLASSIFICATION_TYPE":"U","ECCENTRICITY":"0.00014130","APOAPSIS":"350.011","TLE_LINE2":"2 53715  53.2154  71.1037 0001413  46.6299 213.5591 15.73445547  6532","REF_FRAME":"TEME","DECAY_DATE":null,"REV_AT_EPOCH":"653","TLE_LINE1":"1 53715U 22107R   22288.91668981 -.00719275  00000-0 -55149-2 0  9992","OBJECT_NAME":"STARLINK-4686","PERIAPSIS":"348.110","TIME_SYSTEM":"UTC","COUNTRY_CODE":"US","OBJECT_TYPE":"PAYLOAD","LAUNCH_DATE":"2022-09-05","RCS_SIZE":"LARGE","CENTER_NAME":"EARTH","INCLINATION":"53.2154","MEAN_ELEMENT_THEORY":"SGP4","GP_ID":"215215707","MEAN_MOTION":"15.73445547","BSTAR":"-0.00551490000000","MEAN_MOTION_DDOT":"0.0000000000000","NORAD_CAT_ID":"53715","OBJECT_ID":"2022-107R","ELEMENT_SET_NO":"999"},{"APOAPSIS":"350.350","PERIOD":"91.533","CLASSIFICATION_TYPE":"U","ECCENTRICITY":"0.00008940","EPHEMERIS_TYPE":"0","SEMIMAJOR_AXIS":"6727.884","FILE":"3615679","RA_OF_ASC_NODE":"71.1010","MEAN_ANOMALY":"213.9215","SITE":"AFETR","MEAN_MOTION_DOT":"0.00001199","ARG_OF_PERICENTER":"46.6378","EPOCH":"2022-10-15T22:00:01.999584","NORAD_CAT_ID":"53716","BSTAR":"0.00001295500000","MEAN_MOTION_DDOT":"0.0000000000000","ELEMENT_SET_NO":"999","OBJECT_ID":"2022-107S","MEAN_ELEMENT_THEORY":"SGP4","INCLINATION":"53.2172","MEAN_MOTION":"15.73203957","GP_ID":"215250986","LAUNCH_DATE":"2022-09-05","OBJECT_TYPE":"PAYLOAD","CENTER_NAME":"EARTH","RCS_SIZE":"LARGE","TLE_LINE1":"1 53716U 22107S   22288.91668981  .00001199  00000-0  12955-4 0  9990","OBJECT_NAME":"STARLINK-4699","REV_AT_EPOCH":"130","DECAY_DATE":null,"TLE_LINE2":"2 53716  53.2172  71.1010 0000894  46.6378 213.9215 15.73203957  1308","REF_FRAME":"TEME","COUNTRY_CODE":"US","PERIAPSIS":"349.147","TIME_SYSTEM":"UTC"},{"EPOCH":"2022-10-15T20:33:40.764384","SITE":"AFETR","MEAN_MOTION_DOT":"0.00857951","ARG_OF_PERICENTER":"350.1664","EPHEMERIS_TYPE":"0","SEMIMAJOR_AXIS":"6617.764","FILE":"3615679","RA_OF_ASC_NODE":"65.2942","MEAN_ANOMALY":"9.9212","APOAPSIS":"245.762","PERIOD":"89.295","ECCENTRICITY":"0.00092680","CLASSIFICATION_TYPE":"U","OBJECT_NAME":"STARLINK-4702","TLE_LINE1":"1 53717U 22107T   22288.85672181  .00857951  44533-3  74297-3 0  9994","DECAY_DATE":null,"REV_AT_EPOCH":"660","REF_FRAME":"TEME","TLE_LINE2":"2 53717  53.2048  65.2942 0009268 350.1664   9.9212 16.12634273  6605","COUNTRY_CODE":"US","TIME_SYSTEM":"UTC","PERIAPSIS":"233.495","LAUNCH_DATE":"2022-09-05","OBJECT_TYPE":"PAYLOAD","RCS_SIZE":"LARGE","CENTER_NAME":"EARTH","MEAN_ELEMENT_THEORY":"SGP4","INCLINATION":"53.2048","MEAN_MOTION":"16.12634273","GP_ID":"215249984","NORAD_CAT_ID":"53717","BSTAR":"0.00074297000000","MEAN_MOTION_DDOT":"0.0004453300000","ELEMENT_SET_NO":"999","OBJECT_ID":"2022-107T"},{"REV_AT_EPOCH":"653","DECAY_DATE":null,"TLE_LINE2":"2 53718  53.2151  71.1014 0001505  40.9399 220.4779 15.73432567  6530","REF_FRAME":"TEME","OBJECT_NAME":"STARLINK-4695","TLE_LINE1":"1 53718U 22107U   22288.91668981 -.00740626  00000-0 -56962-2 0  9993","TIME_SYSTEM":"UTC","PERIAPSIS":"348.085","COUNTRY_CODE":"US","OBJECT_TYPE":"PAYLOAD","LAUNCH_DATE":"2022-09-05","CENTER_NAME":"EARTH","RCS_SIZE":"LARGE","INCLINATION":"53.2151","MEAN_ELEMENT_THEORY":"SGP4","MEAN_MOTION":"15.73432567","GP_ID":"215218149","NORAD_CAT_ID":"53718","MEAN_MOTION_DDOT":"0.0000000000000","BSTAR":"-0.00569620000000","OBJECT_ID":"2022-107U","ELEMENT_SET_NO":"999","EPOCH":"2022-10-15T22:00:01.999584","SITE":"AFETR","MEAN_MOTION_DOT":"-0.00740626","ARG_OF_PERICENTER":"40.9399","EPHEMERIS_TYPE":"0","SEMIMAJOR_AXIS":"6727.232","RA_OF_ASC_NODE":"71.1014","MEAN_ANOMALY":"220.4779","FILE":"3615315","PERIOD":"91.520","ECCENTRICITY":"0.00015050","CLASSIFICATION_TYPE":"U","APOAPSIS":"350.110"},{"OBJECT_TYPE":"PAYLOAD","LAUNCH_DATE":"2022-09-05","RCS_SIZE":"LARGE","CENTER_NAME":"EARTH","DECAY_DATE":null,"REV_AT_EPOCH":"130","REF_FRAME":"TEME","TLE_LINE2":"2 53719  53.2160  68.1715 0002546  20.1814 227.3527 15.73240221  1304","OBJECT_NAME":"STARLINK-4644","TLE_LINE1":"1 53719U 22107V   22288.91668981 -.00119940  00000-0 -86071-3 0  9998","TIME_SYSTEM":"UTC","PERIAPSIS":"347.933","COUNTRY_CODE":"US","NORAD_CAT_ID":"53719","MEAN_MOTION_DDOT":"0.0000000000000","BSTAR":"-0.00086071000000","OBJECT_ID":"2022-107V","ELEMENT_SET_NO":"999","INCLINATION":"53.2160","MEAN_ELEMENT_THEORY":"SGP4","MEAN_MOTION":"15.73240221","GP_ID":"215249817","SITE":"AFETR","MEAN_MOTION_DOT":"-0.00119940","ARG_OF_PERICENTER":"20.1814","EPOCH":"2022-10-15T22:00:01.999584","CLASSIFICATION_TYPE":"U","PERIOD":"91.531","ECCENTRICITY":"0.00025460","APOAPSIS":"351.358","EPHEMERIS_TYPE":"0","SEMIMAJOR_AXIS":"6727.781","RA_OF_ASC_NODE":"68.1715","MEAN_ANOMALY":"227.3527","FILE":"3615679"},{"EPHEMERIS_TYPE":"0","SEMIMAJOR_AXIS":"6727.853","RA_OF_ASC_NODE":"71.1048","MEAN_ANOMALY":"219.2052","FILE":"3615315","ECCENTRICITY":"0.00013320","PERIOD":"91.532","CLASSIFICATION_TYPE":"U","APOAPSIS":"350.614","EPOCH":"2022-10-15T22:00:01.999584","SITE":"AFETR","MEAN_MOTION_DOT":"-0.00004169","ARG_OF_PERICENTER":"40.2576","INCLINATION":"53.2137","MEAN_ELEMENT_THEORY":"SGP4","MEAN_MOTION":"15.73214684","GP_ID":"215218157","NORAD_CAT_ID":"53720","BSTAR":"-0.00002528500000","MEAN_MOTION_DDOT":"0.0000000000000","OBJECT_ID":"2022-107W","ELEMENT_SET_NO":"999","REV_AT_EPOCH":"653","DECAY_DATE":null,"TLE_LINE2":"2 53720  53.2137  71.1048 0001332  40.2576 219.2052 15.73214684  6530","REF_FRAME":"TEME","TLE_LINE1":"1 53720U 22107W   22288.91668981 -.00004169  00000-0 -25285-4 0  9997","OBJECT_NAME":"STARLINK-4642","PERIAPSIS":"348.822","TIME_SYSTEM":"UTC","COUNTRY_CODE":"US","OBJECT_TYPE":"PAYLOAD","LAUNCH_DATE":"2022-09-05","RCS_SIZE":"LARGE","CENTER_NAME":"EARTH"},{"DECAY_DATE":null,"REV_AT_EPOCH":"130","TLE_LINE2":"2 53721  53.2149  71.1115 0001178  52.2413 204.3690 15.73411251  1302","REF_FRAME":"TEME","TLE_LINE1":"1 53721U 22107X   22288.91668981 -.00653186  00000-0 -49764-2 0  9993","OBJECT_NAME":"STARLINK-4707","TIME_SYSTEM":"UTC","PERIAPSIS":"348.365","COUNTRY_CODE":"US","OBJECT_TYPE":"PAYLOAD","LAUNCH_DATE":"2022-09-05","RCS_SIZE":"LARGE","CENTER_NAME":"EARTH","INCLINATION":"53.2149","MEAN_ELEMENT_THEORY":"SGP4","MEAN_MOTION":"15.73411251","GP_ID":"215250402","NORAD_CAT_ID":"53721","BSTAR":"-0.00497640000000","MEAN_MOTION_DDOT":"0.0000000000000","OBJECT_ID":"2022-107X","ELEMENT_SET_NO":"999","EPOCH":"2022-10-15T22:00:01.999584","SITE":"AFETR","MEAN_MOTION_DOT":"-0.00653186","ARG_OF_PERICENTER":"52.2413","EPHEMERIS_TYPE":"0","SEMIMAJOR_AXIS":"6727.293","RA_OF_ASC_NODE":"71.1115","MEAN_ANOMALY":"204.3690","FILE":"3615679","CLASSIFICATION_TYPE":"U","PERIOD":"91.521","ECCENTRICITY":"0.00011780","APOAPSIS":"349.950"},{"OBJECT_ID":"2022-107Y","ELEMENT_SET_NO":"999","NORAD_CAT_ID":"53722","MEAN_MOTION_DDOT":"0.0000000000000","BSTAR":"-0.00153590000000","MEAN_MOTION":"15.73260851","GP_ID":"215250570","INCLINATION":"53.2155","MEAN_ELEMENT_THEORY":"SGP4","CENTER_NAME":"EARTH","RCS_SIZE":"LARGE","OBJECT_TYPE":"PAYLOAD","LAUNCH_DATE":"2022-09-05","PERIAPSIS":"348.697","TIME_SYSTEM":"UTC","COUNTRY_CODE":"US","DECAY_DATE":null,"REV_AT_EPOCH":"130","REF_FRAME":"TEME","TLE_LINE2":"2 53722  53.2155  71.1087 0001323  48.9773 208.6756 15.73260851  1309","TLE_LINE1":"1 53722U 22107Y   22288.91668981 -.00211397  00000-0 -15359-2 0  9991","OBJECT_NAME":"STARLINK-4700","PERIOD":"91.530","CLASSIFICATION_TYPE":"U","ECCENTRICITY":"0.00013230","APOAPSIS":"350.477","RA_OF_ASC_NODE":"71.1087","MEAN_ANOMALY":"208.6756","FILE":"3615679","EPHEMERIS_TYPE":"0","SEMIMAJOR_AXIS":"6727.722","MEAN_MOTION_DOT":"-0.00211397","ARG_OF_PERICENTER":"48.9773","SITE":"AFETR","EPOCH":"2022-10-15T22:00:01.999584"},{"MEAN_MOTION":"15.73433838","GP_ID":"215250236","MEAN_ELEMENT_THEORY":"SGP4","INCLINATION":"53.2151","ELEMENT_SET_NO":"999","OBJECT_ID":"2022-107Z","NORAD_CAT_ID":"53723","BSTAR":"-0.00512640000000","MEAN_MOTION_DDOT":"0.0000000000000","COUNTRY_CODE":"US","PERIAPSIS":"348.216","TIME_SYSTEM":"UTC","TLE_LINE1":"1 53723U 22107Z   22288.91668981 -.00672039  00000-0 -51264-2 0  9991","OBJECT_NAME":"STARLINK-4705","DECAY_DATE":null,"REV_AT_EPOCH":"130","REF_FRAME":"TEME","TLE_LINE2":"2 53723  53.2151  71.1137 0001304  50.0410 205.3532 15.73433838  1306","RCS_SIZE":"LARGE","CENTER_NAME":"EARTH","LAUNCH_DATE":"2022-09-05","OBJECT_TYPE":"PAYLOAD","FILE":"3615679","RA_OF_ASC_NODE":"71.1137","MEAN_ANOMALY":"205.3532","EPHEMERIS_TYPE":"0","SEMIMAJOR_AXIS":"6727.229","APOAPSIS":"349.971","PERIOD":"91.520","CLASSIFICATION_TYPE":"U","ECCENTRICITY":"0.00013040","EPOCH":"2022-10-15T22:00:01.999584","MEAN_MOTION_DOT":"-0.00672039","ARG_OF_PERICENTER":"50.0410","SITE":"AFETR"}];
